{"type": "FeatureCollection", "features": [ {"type": "Feature", "properties": {"norad_id": 58662, "name": "TIANMU-1 21", "group": "weather", "lat": -21.12377874509929, "lon": -86.27329879421727, "alt_km": 475.8133530437881, "timestamp": "2025-12-09T05:43:20.370582+00:00", "meta": {"OBJECT_NAME": "TIANMU-1 21", "OBJECT_ID": "2023-208C", "EPOCH": "2025-12-08T21:00:18.048096", "MEAN_MOTION": 15.31423335, "ECCENTRICITY": 0.000592, "INCLINATION": 97.4378, "RA_OF_ASC_NODE": 96.2554, "ARG_OF_PERICENTER": 276.7587, "MEAN_ANOMALY": 83.298, "EPHEMERIS_TYPE": 0, "CLASSIFICATION_TYPE": "U", "NORAD_CAT_ID": 58662, "ELEMENT_SET_NO": 999, "REV_AT_EPOCH": 10840, "BSTAR": 0.00052124, "MEAN_MOTION_DOT": 0.00015763, "MEAN_MOTION_DDOT": 0}, "tle": {"line1": "1 58662U 23208C   25342.87520889  .00015763  00000+0  52124-3 0  9993", "line2": "2 58662  97.4378  96.2554 0005920 276.7587  83.2980 15.31423335108409"}}, "geometry": {"type": "Point", "coordinates": [-86.27329879421727, -21.12377874509929]}}, {"type": "Feature", "properties": {"norad_id": 58663, "name": "TIANMU-1 22", "group": "weather", "lat": 6.80982775869612, "lon": -84.76259634373824, "alt_km": 486.7138828666202, "timestamp": "2025-12-09T05:43:20.370598+00:00", "meta": {"OBJECT_NAME": "TIANMU-1 22", "OBJECT_ID": "2023-208D", "EPOCH": "2025-12-08T21:06:21.898368", "MEAN_MOTION": 15.27502421, "ECCENTRICITY": 0.0002815, "INCLINATION": 97.4385, "RA_OF_ASC_NODE": 93.9854, "ARG_OF_PERICENTER": 306.2293, "MEAN_ANOMALY": 53.8686, "EPHEMERIS_TYPE": 0, "CLASSIFICATION_TYPE": "U", "NORAD_CAT_ID": 58663, "ELEMENT_SET_NO": 999, "REV_AT_EPOCH": 10824, "BSTAR": 0.00045872, "MEAN_MOTION_DOT": 0.00012277, "MEAN_MOTION_DDOT": 0}, "tle": {"line1": "1 58663U 23208D   25342.87942012  .00012277  00000+0  45872-3 0  9999", "line2": "2 58663  97.4385  93.9854 0002815 306.2293  53.8686 15.27502421108245"}}, "geometry": {"type": "Point", "coordinates": [-84.76259634373824, 6.80982775869612]}}, {"type": "Feature", "properties": {"norad_id": 58700, "name": "TIANMU-1 15", "group": "weather", "lat": -20.784852431009124, "lon": 167.57279254114997, "alt_km": 493.9845820047949, "timestamp": "2025-12-09T05:43:20.370614+00:00", "meta": {"OBJECT_NAME": "TIANMU-1 15", "OBJECT_ID": "2024-004A", "EPOCH": "2025-12-08T20:21:46.462752", "MEAN_MOTION": 15.24601326, "ECCENTRICITY": 0.0005365, "INCLINATION": 97.4629, "RA_OF_ASC_NODE": 164.3324, "ARG_OF_PERICENTER": 314.7161, "MEAN_ANOMALY": 45.3639, "EPHEMERIS_TYPE": 0, "CLASSIFICATION_TYPE": "U", "NORAD_CAT_ID": 58700, "ELEMENT_SET_NO": 999, "REV_AT_EPOCH": 10675, "BSTAR": 0.00044497, "MEAN_MOTION_DOT": 0.0001091, "MEAN_MOTION_DDOT": 0}, "tle": {"line1": "1 58700U 24004A   25342.84845443  .00010910  00000+0  44497-3 0  9997", "line2": "2 58700  97.4629 164.3324 0005365 314.7161  45.3639 15.24601326106753"}}, "geometry": {"type": "Point", "coordinates": [167.57279254114997, -20.784852431009124]}}, {"type": "Feature", "properties": {"norad_id": 58701, "name": "TIANMU-1 16", "group": "weather", "lat": 63.08374603724953, "lon": 149.16251423952713, "alt_km": 487.7949015388558, "timestamp": "2025-12-09T05:43:20.370631+00:00", "meta": {"OBJECT_NAME": "TIANMU-1 16", "OBJECT_ID": "2024-004B", "EPOCH": "2025-12-08T19:59:22.856352", "MEAN_MOTION": 15.24353383, "ECCENTRICITY": 0.000467, "INCLINATION": 97.4569, "RA_OF_ASC_NODE": 163.71, "ARG_OF_PERICENTER": 313.3281, "MEAN_ANOMALY": 46.7567, "EPHEMERIS_TYPE": 0, "CLASSIFICATION_TYPE": "U", "NORAD_CAT_ID": 58701, "ELEMENT_SET_NO": 999, "REV_AT_EPOCH": 10675, "BSTAR": 0.00043101, "MEAN_MOTION_DOT": 0.00010486, "MEAN_MOTION_DDOT": 0}, "tle": {"line1": "1 58701U 24004B   25342.83290343  .00010486  00000+0  43101-3 0  9999", "line2": "2 58701  97.4569 163.7100 0004670 313.3281  46.7567 15.24353383106750"}}, "geometry": {"type": "Point", "coordinates": [149.16251423952713, 63.08374603724953]}}, {"type": "Feature", "properties": {"norad_id": 58702, "name": "TIANMU-1 17", "group": "weather", "lat": 31.61074609916996, "lon": -10.852476108294995, "alt_km": 493.4825715628267, "timestamp": "2025-12-09T05:43:20.370646+00:00", "meta": {"OBJECT_NAME": "TIANMU-1 17", "OBJECT_ID": "2024-004C", "EPOCH": "2025-12-08T19:37:21.713088", "MEAN_MOTION": 15.24397343, "ECCENTRICITY": 0.0003894, "INCLINATION": 97.4603, "RA_OF_ASC_NODE": 164.1027, "ARG_OF_PERICENTER": 317.4455, "MEAN_ANOMALY": 42.648, "EPHEMERIS_TYPE": 0, "CLASSIFICATION_TYPE": "U", "NORAD_CAT_ID": 58702, "ELEMENT_SET_NO": 999, "REV_AT_EPOCH": 10674, "BSTAR": 0.00042004, "MEAN_MOTION_DOT": 0.0001023, "MEAN_MOTION_DDOT": 0}, "tle": {"line1": "1 58702U 24004C   25342.81761242  .00010230  00000+0  42004-3 0  9997", "line2": "2 58702  97.4603 164.1027 0003894 317.4455  42.6480 15.24397343106740"}}, "geometry": {"type": "Point", "coordinates": [-10.852476108294995, 31.61074609916996]}}, {"type": "Feature", "properties": {"norad_id": 58703, "name": "TIANMU-1 18", "group": "weather", "lat": -58.871270425860835, "lon": -27.818391860493502, "alt_km": 499.26710304931566, "timestamp": "2025-12-09T05:43:20.370666+00:00", "meta": {"OBJECT_NAME": "TIANMU-1 18", "OBJECT_ID": "2024-004D", "EPOCH": "2025-12-08T20:47:48.953184", "MEAN_MOTION": 15.24387495, "ECCENTRICITY": 0.0003258, "INCLINATION": 97.462, "RA_OF_ASC_NODE": 164.346, "ARG_OF_PERICENTER": 318.3038, "MEAN_ANOMALY": 41.795, "EPHEMERIS_TYPE": 0, "CLASSIFICATION_TYPE": "U", "NORAD_CAT_ID": 58703, "ELEMENT_SET_NO": 999, "REV_AT_EPOCH": 10675, "BSTAR": 0.0004342, "MEAN_MOTION_DOT": 0.00010574, "MEAN_MOTION_DDOT": 0}, "tle": {"line1": "1 58703U 24004D   25342.86653881  .00010574  00000+0  43420-3 0  9996", "line2": "2 58703  97.4620 164.3460 0003258 318.3038  41.7950 15.24387495106754"}}, "geometry": {"type": "Point", "coordinates": [-27.818391860493502, -58.871270425860835]}}, {"type": "Feature", "properties": {"norad_id": 58990, "name": "INSAT-3DS", "group": "weather", "lat": -0.01049157846298131, "lon": -113.8624352255717, "alt_km": 35780.00208252186, "timestamp": "2025-12-09T05:43:20.370684+00:00", "meta": {"OBJECT_NAME": "INSAT-3DS", "OBJECT_ID": "2024-033A", "EPOCH": "2025-12-08T19:07:51.582720", "MEAN_MOTION": 1.00269579, "ECCENTRICITY": 0.0001671, "INCLINATION": 0.0153, "RA_OF_ASC_NODE": 78.832, "ARG_OF_PERICENTER": 185.619, "MEAN_ANOMALY": 182.3948, "EPHEMERIS_TYPE": 0, "CLASSIFICATION_TYPE": "U", "NORAD_CAT_ID": 58990, "ELEMENT_SET_NO": 999, "REV_AT_EPOCH": 4515, "BSTAR": 0, "MEAN_MOTION_DOT": -1.53e-06, "MEAN_MOTION_DDOT": 0}, "tle": {"line1": "1 58990U 24033A   25342.79712480 -.00000153  00000+0  00000+0 0  9995", "line2": "2 58990   0.0153  78.8320 0001671 185.6190 182.3948  1.00269579 45154"}}, "geometry": {"type": "Point", "coordinates": [-113.8624352255717, -0.01049157846298131]}}, {"type": "Feature", "properties": {"norad_id": 59051, "name": "METEOR-M2 4", "group": "weather", "lat": -75.39248215319407, "lon": 84.33725707240431, "alt_km": 826.3566652062282, "timestamp": "2025-12-09T05:43:20.370704+00:00", "meta": {"OBJECT_NAME": "METEOR-M2 4", "OBJECT_ID": "2024-039A", "EPOCH": "2025-12-08T21:45:31.862592", "MEAN_MOTION": 14.22400463, "ECCENTRICITY": 0.0007257, "INCLINATION": 98.6761, "RA_OF_ASC_NODE": 299.8758, "ARG_OF_PERICENTER": 9.4637, "MEAN_ANOMALY": 350.6676, "EPHEMERIS_TYPE": 0, "CLASSIFICATION_TYPE": "U", "NORAD_CAT_ID": 59051, "ELEMENT_SET_NO": 999, "REV_AT_EPOCH": 9221, "BSTAR": 7.0495e-05, "MEAN_MOTION_DOT": 1.13e-06, "MEAN_MOTION_DDOT": 0}, "tle": {"line1": "1 59051U 24039A   25342.90661878  .00000113  00000+0  70495-4 0  9992", "line2": "2 59051  98.6761 299.8758 0007257   9.4637 350.6676 14.22400463 92210"}}, "geometry": {"type": "Point", "coordinates": [84.33725707240431, -75.39248215319407]}}, {"type": "Feature", "properties": {"norad_id": 60133, "name": "GOES 19", "group": "weather", "lat": 0.008849773818720857, "lon": 88.88893811522297, "alt_km": 35791.05409361642, "timestamp": "2025-12-09T05:43:20.370722+00:00", "meta": {"OBJECT_NAME": "GOES 19", "OBJECT_ID": "2024-119A", "EPOCH": "2025-12-08T18:22:48.398880", "MEAN_MOTION": 1.00271039, "ECCENTRICITY": 0.0001332, "INCLINATION": 0.0347, "RA_OF_ASC_NODE": 184.3786, "ARG_OF_PERICENTER": 117.6205, "MEAN_ANOMALY": 336.2875, "EPHEMERIS_TYPE": 0, "CLASSIFICATION_TYPE": "U", "NORAD_CAT_ID": 60133, "ELEMENT_SET_NO": 999, "REV_AT_EPOCH": 505, "BSTAR": 0, "MEAN_MOTION_DOT": -2.46e-06, "MEAN_MOTION_DDOT": 0}, "tle": {"line1": "1 60133U 24119A   25342.76583795 -.00000246  00000+0  00000+0 0  9997", "line2": "2 60133   0.0347 184.3786 0001332 117.6205 336.2875  1.00271039  5054"}}, "geometry": {"type": "Point", "coordinates": [88.88893811522297, 0.008849773818720857]}}, {"type": "Feature", "properties": {"norad_id": 65815, "name": "FENGYUN 3H", "group": "weather", "lat": 11.1515035991174, "lon": 104.62612233950814, "alt_km": 827.0044562606108, "timestamp": "2025-12-09T05:43:20.370742+00:00", "meta": {"OBJECT_NAME": "FENGYUN 3H", "OBJECT_ID": "2025-219A", "EPOCH": "2025-12-08T20:28:29.344224", "MEAN_MOTION": 14.19903172, "ECCENTRICITY": 6.05e-05, "INCLINATION": 98.6579, "RA_OF_ASC_NODE": 282.5281, "ARG_OF_PERICENTER": 83.6677, "MEAN_ANOMALY": 276.4569, "EPHEMERIS_TYPE": 0, "CLASSIFICATION_TYPE": "U", "NORAD_CAT_ID": 65815, "ELEMENT_SET_NO": 999, "REV_AT_EPOCH": 1037, "BSTAR": 0.00012538, "MEAN_MOTION_DOT": 2.23e-06, "MEAN_MOTION_DDOT": 0}, "tle": {"line1": "1 65815U 25219A   25342.85311741  .00000223  00000+0  12538-3 0  9998", "line2": "2 65815  98.6579 282.5281 0000605  83.6677 276.4569 14.19903172 10374"}}, "geometry": {"type": "Point", "coordinates": [104.62612233950814, 11.1515035991174]}}]}